{
  "type": "FeatureCollection",
  "features": [
    {
      "type": "Feature",
      "properties": { "id": "hasaka", "name": "الحسكة", "name_en": "Al-Hasakah" },
      "geometry": {
        "type": "Polygon",
        "coordinates": [[
          [39.5, 37.1], [40.2, 37.1], [41.0, 37.0], [41.8, 36.8],
          [42.3, 36.6], [42.0, 36.2], [41.5, 35.9], [41.0, 35.8],
          [40.3, 35.9], [39.5, 36.0], [39.0, 36.3], [39.0, 36.8],
          [39.5, 37.1]
        ]]
      }
    },
    {
      "type": "Feature",
      "properties": { "id": "aleppo", "name": "حلب", "name_en": "Aleppo" },
      "geometry": {
        "type": "Polygon",
        "coordinates": [[
          [36.5, 37.1], [37.3, 37.1], [38.0, 37.0], [38.7, 36.9],
          [39.0, 36.8], [39.0, 36.3], [39.5, 36.0], [39.0, 35.8],
          [38.2, 35.8], [37.5, 35.9], [36.9, 36.1], [36.5, 36.4],
          [36.5, 37.1]
        ]]
      }
    },
    {
      "type": "Feature",
      "properties": { "id": "idlib", "name": "إدلب", "name_en": "Idlib" },
      "geometry": {
        "type": "Polygon",
        "coordinates": [[
          [35.9, 36.1], [36.5, 36.4], [36.9, 36.1], [36.8, 35.7],
          [36.5, 35.5], [36.1, 35.5], [35.9, 35.7], [35.9, 36.1]
        ]]
      }
    },
    {
      "type": "Feature",
      "properties": { "id": "latakia", "name": "اللاذقية", "name_en": "Latakia" },
      "geometry": {
        "type": "Polygon",
        "coordinates": [[
          [35.7, 35.95], [35.95, 35.95], [36.0, 35.7], [35.95, 35.5],
          [35.75, 35.5], [35.65, 35.65], [35.7, 35.95]
        ]]
      }
    },
    {
      "type": "Feature",
      "properties": { "id": "tartus", "name": "طرطوس", "name_en": "Tartus" },
      "geometry": {
        "type": "Polygon",
        "coordinates": [[
          [35.75, 35.5], [35.95, 35.5], [36.05, 35.2], [36.0, 34.85],
          [35.85, 34.8], [35.7, 35.0], [35.7, 35.5]
        ]]
      }
    },
    {
      "type": "Feature",
      "properties": { "id": "hama", "name": "حماة", "name_en": "Hama" },
      "geometry": {
        "type": "Polygon",
        "coordinates": [[
          [36.1, 35.5], [36.5, 35.5], [36.8, 35.7], [37.2, 35.5],
          [37.1, 35.0], [36.7, 34.8], [36.2, 34.8], [36.05, 35.2],
          [36.1, 35.5]
        ]]
      }
    },
    {
      "type": "Feature",
      "properties": { "id": "raqqa", "name": "الرقة", "name_en": "Raqqa" },
      "geometry": {
        "type": "Polygon",
        "coordinates": [[
          [38.0, 35.9], [39.0, 35.8], [39.5, 36.0], [40.3, 35.9],
          [40.0, 35.5], [39.3, 35.3], [38.5, 35.4], [38.0, 35.6],
          [38.0, 35.9]
        ]]
      }
    },
    {
      "type": "Feature",
      "properties": { "id": "deir-ezzor", "name": "دير الزور", "name_en": "Deir ez-Zor" },
      "geometry": {
        "type": "Polygon",
        "coordinates": [[
          [38.5, 35.4], [39.3, 35.3], [40.0, 35.5], [40.8, 35.2],
          [41.5, 34.8], [41.8, 34.3], [41.2, 34.0], [40.0, 34.0],
          [39.0, 34.3], [38.5, 34.8], [38.5, 35.4]
        ]]
      }
    },
    {
      "type": "Feature",
      "properties": { "id": "homs", "name": "حمص", "name_en": "Homs" },
      "geometry": {
        "type": "Polygon",
        "coordinates": [[
          [36.2, 34.8], [36.7, 34.8], [37.1, 35.0], [37.5, 34.8],
          [38.0, 34.8], [38.5, 34.8], [39.0, 34.3], [38.8, 33.8],
          [38.0, 33.5], [37.2, 33.4], [36.5, 33.7], [36.0, 34.2],
          [36.0, 34.8], [36.2, 34.8]
        ]]
      }
    },
    {
      "type": "Feature",
      "properties": { "id": "damascus", "name": "دمشق", "name_en": "Damascus" },
      "geometry": {
        "type": "Polygon",
        "coordinates": [[
          [36.23, 33.55], [36.35, 33.55], [36.35, 33.47],
          [36.23, 33.47], [36.23, 33.55]
        ]]
      }
    },
    {
      "type": "Feature",
      "properties": { "id": "rural-damascus", "name": "ريف دمشق", "name_en": "Rif Dimashq" },
      "geometry": {
        "type": "Polygon",
        "coordinates": [[
          [36.0, 33.85], [36.5, 33.85], [36.8, 33.6], [36.8, 33.2],
          [36.5, 33.1], [36.2, 33.2], [36.0, 33.5], [36.0, 33.85]
        ]]
      }
    },
    {
      "type": "Feature",
      "properties": { "id": "quneitra", "name": "القنيطرة", "name_en": "Quneitra" },
      "geometry": {
        "type": "Polygon",
        "coordinates": [[
          [35.75, 33.25], [36.0, 33.25], [36.0, 33.0], [35.8, 33.0],
          [35.75, 33.1], [35.75, 33.25]
        ]]
      }
    },
    {
      "type": "Feature",
      "properties": { "id": "draa", "name": "درعا", "name_en": "Draa" },
      "geometry": {
        "type": "Polygon",
        "coordinates": [[
          [36.0, 33.1], [36.5, 33.1], [36.8, 32.9], [36.8, 32.5],
          [36.3, 32.4], [35.9, 32.6], [35.9, 33.0], [36.0, 33.1]
        ]]
      }
    },
    {
      "type": "Feature",
      "properties": { "id": "suwayda", "name": "السويداء", "name_en": "As-Suwayda" },
      "geometry": {
        "type": "Polygon",
        "coordinates": [[
          [36.5, 33.1], [37.2, 33.2], [37.6, 32.9], [37.5, 32.4],
          [37.0, 32.2], [36.5, 32.4], [36.5, 33.1]
        ]]
      }
    }
  ]
}
